STARLINK-4290           
1 53006U 22076W   25285.62074394  .00000602  00000+0  55927-4 0  9997
2 53006  53.2162  38.8258 0001230  92.4674 267.6459 15.08840983180494
STARLINK-4215           
1 53007U 22076X   25285.60602296  .00003582  00000+0  24296-3 0  9998
2 53007  53.2178  38.8937 0000948  92.1091 268.0009 15.08845306180491
STARLINK-4275           
1 53008U 22076Y   25285.60969632  .00000970  00000+0  78993-4 0  9991
2 53008  53.2177  38.8689 0001090  89.0768 271.0349 15.08845927180490
STARLINK-4277           
1 53009U 22076Z   25285.59222691  .00000030  00000+0  19970-4 0  9994
2 53009  53.2171  28.9566 0001276  86.7964 273.3174 15.08838924180622
STARLINK-4263           
1 53010U 22076AA  25285.58390670  .00001243  00000+0  96183-4 0  9996
2 53010  53.2166  38.7210 0001406  92.8380 267.2773 15.08845050180498
STARLINK-4265           
1 53011U 22076AB  25285.58854643  .00002291  00000+0  16200-3 0  9997
2 53011  53.2178  28.9750 0001884  99.3431 260.7774 15.08846134180629
STARLINK-4271           
1 53012U 22076AC  25285.60233965  .00000928  00000+0  76381-4 0  9991
2 53012  53.2165  38.9084 0001662  91.9124 268.2058 15.08843401180495
STARLINK-4177           
1 53013U 22076AD  25285.58117890  .00001143  00000+0  89853-4 0  9995
2 53013  53.2197  29.0077 0001295  93.2224 266.8916 15.08846111180625
STARLINK-4183           
1 53014U 22076AE  25285.59591093  .00002234  00000+0  15842-3 0  9996
2 53014  53.2176  28.9383 0001202  88.0311 272.0819 15.08842487180621
STARLINK-4262           
1 53015U 22076AF  25285.57383102 -.00004138  00000+0 -24182-3 0  9999
2 53015  53.2175  29.0379 0000848  84.7399 275.3690 15.08872621180628
STARLINK-4283           
1 53016U 22076AG  25285.58486034  .00000973  00000+0  79203-4 0  9995
2 53016  53.2183  28.9906 0001103  67.1905 292.9204 15.08846296180620
STARLINK-4281           
1 53017U 22076AH  25285.57014628 -.00000055  00000+0  14604-4 0  9997
2 53017  53.2186  29.0518 0001417  98.4036 261.7117 15.08843194180637
STARLINK-4279           
1 53018U 22076AJ  25285.47449555  .00000740  00000+0  64610-4 0  9990
2 53018  53.2196  29.7424 0001456  93.0658 267.0501 15.08841343180603
STARLINK-4282           
1 53019U 22076AK  25285.56278118  .00000540  00000+0  52019-4 0  9994
2 53019  53.2176  29.0853 0001339  98.6959 261.4185 15.08841898180629
STARLINK-4287           
1 53020U 22076AL  25285.51126794 -.00004875  00000+0 -28831-3 0  9994
2 53020  53.2195  29.3199 0001350  93.2225 266.8921 15.08855223180611
STARLINK-4216           
1 53022U 22076AN  25285.56646785 -.00000044  00000+0  15317-4 0  9997
2 53022  53.2162  29.0700 0001525  97.3806 262.7360 15.08838734180627
STARLINK-4284           
1 53023U 22076AP  25285.54805890  .00000671  00000+0  60247-4 0  9997
2 53023  53.2155  29.1425 0001387  96.5660 263.5490 15.08845379180626
STARLINK-4289           
1 53024U 22076AQ  25285.55175290  .00001539  00000+0  11476-3 0  9996
2 53024  53.2164  29.1357 0001251  66.7888 293.3236 15.08845075180624
STARLINK-4218           
1 53025U 22076AR  25285.47814327  .00000918  00000+0  75745-4 0  9999
2 53025  53.2182  29.4653 0001294  87.7424 272.3716 15.08843715180611
STARLINK-4119           
1 53026U 22076AS  25285.54901088 -.00000134  00000+0  96665-5 0  9995
2 53026  53.2162  29.0417 0001182  87.9187 272.1941 15.08840128180622
STARLINK-4158           
1 53027U 22076AT  25285.46710761  .00000475  00000+0  47900-4 0  9997
2 53027  53.2178  29.5165 0001249  90.0196 270.0939 15.08839278180611
STARLINK-4143           
1 53029U 22076AV  25285.51954027 -.00005090  00000+0 -30170-3 0  9990
2 53029  53.2181  19.2812 0001451  96.4554 263.6603 15.08867003180753
STARLINK-4160           
1 53030U 22076AW  25285.55912327  .00001393  00000+0  10556-3 0  9999
2 53030  53.2152  29.2957 0001297  82.8317 277.2822 15.08846398180622
STARLINK-4137           
1 53031U 22076AX  25285.50851235  .00000273  00000+0  35252-4 0  9992
2 53031  53.2202  19.3332 0001341  91.8972 268.2174 15.08839201180752
STARLINK-4115           
1 53032U 22076AY  25285.47078760  .00000116  00000+0  25364-4 0  9992
2 53032  53.2173  29.4991 0001377  85.4461 274.6689 15.08838454180610
STARLINK-4167           
1 53033U 22076AZ  25285.64467384 -.00000476  00000+0 -11796-4 0  9991
2 53033  53.2217  18.7222 0001776  91.8697 268.2499 15.08837448180770
STARLINK-4151           
1 53034U 22076BA  25285.52051197 -.00003837  00000+0 -22319-3 0  9996
2 53034  53.2179  19.3240 0001491  86.1434 273.9729 15.08830624180751
STARLINK-4157           
1 53035U 22076BB  25285.63730828  .00000304  00000+0  37163-4 0  9992
2 53035  53.2204  18.7549 0001545  82.8760 277.2408 15.08842308180776
STARLINK-4155           
1 53036U 22076BC  25285.56738553  .00000588  00000+0  55022-4 0  9996
2 53036  53.2185  19.0684 0001229  87.9338 272.1795 15.08843373180760
STARLINK-4153           
1 53037U 22076BD  25285.56371007 -.00000467  00000+0 -11273-4 0  9992
2 53037  53.2186  19.0872 0001061  79.9529 280.1583 15.08840744180761
STARLINK-4156           
1 53038U 22076BE  25285.56003075 -.00001183  00000+0 -56223-4 0  9990
2 53038  53.2190  19.1043 0001325  87.9681 272.1463 15.08840171180761
STARLINK-4362           
1 53043U 22077A   25285.60789425 -.00000194  00000+0 -10607-4 0  9999
2 53043  97.6017 105.2331 0000927 253.0478 107.0645 15.01260132178706
STARLINK-4349           
1 53044U 22077B   25285.47089123 -.00000642  00000+0 -45457-4 0  9992
2 53044  97.6023 105.0984 0000610  69.3880 290.7410 15.01254423178683
STARLINK-4350           
1 53045U 22077C   25285.46215815  .00002046  00000+0  14911-3 0  9999
2 53045  97.6038 105.1073 0001094  92.3464 267.7887 15.04845009178682
STARLINK-4331           
1 53046U 22077D   25285.62102557 -.00000433  00000+0 -25779-4 0  9991
2 53046  97.6036 105.3617 0001714  88.3449 271.7974 15.05645517178713
STARLINK-4352           
1 53047U 22077E   25285.52112320  .00000781  00000+0  65348-4 0  9990
2 53047  97.6045 105.1867 0001515  87.1542 272.9855 15.01260651178695
STARLINK-4355           
1 53048U 22077F   25285.66668981 -.00041702  00000+0 -29011-2 0  9990
2 53048  97.6051 105.3340 0001712  85.3575  12.1083 15.05671148  5783
STARLINK-4345           
1 53049U 22077G   25285.45977809  .00000557  00000+0  47866-4 0  9991
2 53049  97.6046 105.1005 0000034 318.6234  41.4987 15.01262716178674
STARLINK-4343           
1 53050U 22077H   25285.46459084  .00075799  00000+0  57457-2 0  9999
2 53050  97.6034 105.0941 0001804 117.2362 242.9047 15.01899226178679
STARLINK-4336           
1 53051U 22077J   25285.46718766 -.00000280  00000+0 -17280-4 0  9992
2 53051  97.6029 105.0780 0001785 157.6109 202.5194 15.01259810178674
STARLINK-4341           
1 53052U 22077K   25285.46348237  .00000705  00000+0  59394-4 0  9997
2 53052  97.6040 105.0936 0000821  79.3857 280.7460 15.01262263178671
STARLINK-4337           
1 53053U 22077L   25285.45607846  .00001062  00000+0  87172-4 0  9993
2 53053  97.6053 105.0933 0001381  88.6083 271.5300 15.01260297178675
STARLINK-4339           
1 53054U 22077M   25285.56840090  .00002190  00000+0  15601-3 0  9996
2 53054  97.6041 105.2604 0001755  79.6902 280.4522 15.05637643178699
STARLINK-4338           
1 53055U 22077N   25285.45423431  .00000342  00000+0  31141-4 0  9996
2 53055  97.6030 105.0931 0002245  78.3277 281.8199 15.01257669178670
STARLINK-4314           
1 53056U 22077P   25285.66668981 -.00036924  00000+0 -26236-2 0  9995
2 53056  97.6038 105.3164 0001706  67.1868  20.4893 15.04850158  5787
STARLINK-4252           
1 53057U 22077Q   25285.60994655  .00000188  00000+0  17259-4 0  9998
2 53057  97.6023 105.3353 0001539  78.0712 282.0688 15.05648798178702
STARLINK-4317           
1 53058U 22077R   25285.46927998  .00000305  00000+0  28290-4 0  9997
2 53058  97.6017 105.0619 0002098 206.0556 154.0563 15.01263447178685
STARLINK-4320           
1 53059U 22077S   25285.51372118  .00000479  00000+0  41838-4 0  9997
2 53059  97.6039 105.1515 0002651  77.5928 282.5593 15.01261344178689
STARLINK-4305           
1 53060U 22077T   25285.45237785  .00000291  00000+0  27179-4 0  9996
2 53060  97.6041 105.0900 0002391  84.5962 275.5535 15.01262926178672
STARLINK-4308           
1 53061U 22077U   25285.57827506 -.00000661  00000+0 -46938-4 0  9993
2 53061  97.6030 105.2149 0002406  80.4692 279.6804 15.01269854178693
STARLINK-4311           
1 53062U 22077V   25285.51534339 -.00000556  00000+0 -38790-4 0  9997
2 53062  97.6035 105.1522 0002521  85.3459 274.8053 15.01249610178686
STARLINK-4307           
1 53063U 22077W   25285.46903113 -.00002826  00000+0 -21556-3 0  9995
2 53063  97.6032 105.1143 0002164 172.0740 188.0519 15.01264629 50266
STARLINK-4313           
1 53064U 22077X   25285.66668981 -.00053802  00000+0 -38328-2 0  9993
2 53064  97.6029 105.3282 0002057  83.3594  87.5543 15.04860713  5787
STARLINK-4312           
1 53065U 22077Y   25285.57458238  .00001637  00000+0  13190-3 0  9994
2 53065  97.6031 105.2111 0002799  69.5723 290.5802 15.01267739178695
STARLINK-4309           
1 53066U 22077Z   25285.66668981 -.00048653  00000+0 -38065-2 0  9991
2 53066  97.6031 105.3096 0003450  60.5183  85.8380 15.01285961  5383
STARLINK-4325           
1 53068U 22077AB  25285.66668981 -.00052963  00000+0 -37726-2 0  9995
2 53068  97.6032 105.3234 0001882  80.3397 118.6140 15.04859712  5792
STARLINK-4323           
1 53069U 22077AC  25285.56716452  .00000054  00000+0  87596-5 0  9997
2 53069  97.6028 105.2031 0002318  53.3200 306.8237 15.01263335178695
STARLINK-4342           
1 53070U 22077AD  25285.46041380  .00000747  00000+0  55946-4 0  9991
2 53070  97.6018 105.2017 0001420  76.0390 284.0994 15.05654393178683
STARLINK-4328           
1 53071U 22077AE  25285.45764644  .00000387  00000+0  31009-4 0  9990
2 53071  97.6020 105.1877 0001331  87.5110 272.6269 15.05649649178684
